[{"OBJECT_NAME":"STARLINK-32768","OBJECT_ID":"2025-003S","EPOCH":"2026-03-09T22:35:45.981024","MEAN_MOTION":15.27602656,"ECCENTRICITY":0.00012646,"INCLINATION":43.0013,"RA_OF_ASC_NODE":287.2377,"ARG_OF_PERICENTER":315.1441,"MEAN_ANOMALY":44.9309,"EPHEMERIS_TYPE":0,"CLASSIFICATION_TYPE":"U","NORAD_CAT_ID":62503,"ELEMENT_SET_NO":999,"REV_AT_EPOCH":6659,"BSTAR":0.0011049213,"MEAN_MOTION_DOT":0.00030289,"MEAN_MOTION_DDOT":0},{"OBJECT_NAME":"OBJECT G","OBJECT_ID":"2026-023G","EPOCH":"2026-03-09T17:12:13.064832","MEAN_MOTION":15.23234695,"ECCENTRICITY":0.00237819,"INCLINATION":96.6246,"RA_OF_ASC_NODE":144.1318,"ARG_OF_PERICENTER":118.2502,"MEAN_ANOMALY":242.1141,"EPHEMERIS_TYPE":0,"CLASSIFICATION_TYPE":"U","NORAD_CAT_ID":67680,"ELEMENT_SET_NO":999,"REV_AT_EPOCH":484,"BSTAR":0.00060026958,"MEAN_MOTION_DOT":0.00014279,"MEAN_MOTION_DDOT":0}]
